0 CZ-4B DEB
1 37580U 99025EKD 13286.81304551  .00000598  00000-0  38084-3 0  2187
2 37580 099.0840 269.6087 0130910 345.6463 131.6355 14.03519625527484
0 CZ-4B DEB
1 37580U 99025EKD 13292.80150616  .00000683  00000-0  43121-3 0  2198
2 37580 099.0855 275.5910 0130492 328.8434 149.6615 14.03529650528328
0 CZ-4B DEB
1 37580U 99025EKD 13295.21468990  .00000757  00000-0  47500-3 0  2202
2 37580 099.0853 278.0027 0130385 322.0628 102.8745 14.03533780528666
